{
  "type": "FeatureCollection",
  "features": [
    {
      "type": "Feature",
      "properties": {
        "norad_id": 37836,
        "name": "EUTELSAT 16A",
        "group": "eutelsat",
        "lat": 0.07950073229250484,
        "lon": 72.39003507898177,
        "alt_km": 35811.228378162894,
        "timestamp": "2025-12-07T22:37:42.754230+00:00",
        "meta_object_name": "EUTELSAT 16A",
        "meta_object_id": "2011-057A",
        "meta_epoch": "2025-12-07T06:51:46.383264",
        "meta_mean_motion": 1.00270147,
        "meta_eccentricity": 0.00059003,
        "meta_inclination": 0.0581,
        "meta_ra_of_asc_node": 356.5753,
        "meta_arg_of_pericenter": 263.6262,
        "meta_mean_anomaly": 295.057,
        "meta_ephemeris_type": 0,
        "meta_classification_type": "U",
        "meta_norad_cat_id": 37836,
        "meta_element_set_no": 999,
        "meta_rev_at_epoch": 540,
        "meta_bstar": 0,
        "meta_mean_motion_dot": 1.08e-06,
        "meta_mean_motion_ddot": 0,
        "tle_line1": "1 37836U 11057A   25341.28595351  .00000108  00000+0  00000+0 0  9991",
        "tle_line2": "2 37836   0.0581 356.5753 0005900 263.6262 295.0570  1.00270147  5407"
      },
      "geometry": {
        "type": "Point",
        "coordinates": [
          72.39003507898177,
          0.07950073229250484
        ]
      }
    },
    {
      "type": "Feature",
      "properties": {
        "norad_id": 38992,
        "name": "EUTELSAT 21B",
        "group": "eutelsat",
        "lat": 0.0893038473042065,
        "lon": 77.98154384635417,
        "alt_km": 35800.00212220865,
        "timestamp": "2025-12-07T22:37:42.754242+00:00",
        "meta_object_name": "EUTELSAT 21B",
        "meta_object_id": "2012-062B",
        "meta_epoch": "2025-12-07T05:10:33.576960",
        "meta_mean_motion": 1.00270041,
        "meta_eccentricity": 0.0003215,
        "meta_inclination": 0.0665,
        "meta_ra_of_asc_node": 353.9118,
        "meta_arg_of_pericenter": 270.7349,
        "meta_mean_anomaly": 270.8362,
        "meta_ephemeris_type": 0,
        "meta_classification_type": "U",
        "meta_norad_cat_id": 38992,
        "meta_element_set_no": 999,
        "meta_rev_at_epoch": 4790,
        "meta_bstar": 0,
        "meta_mean_motion_dot": 1.35e-06,
        "meta_mean_motion_ddot": 0,
        "tle_line1": "1 38992U 12062B   25341.21566640  .00000135  00000+0  00000+0 0  9994",
        "tle_line2": "2 38992   0.0665 353.9118 0003215 270.7349 270.8362  1.00270041 47906"
      },
      "geometry": {
        "type": "Point",
        "coordinates": [
          77.98154384635417,
          0.0893038473042065
        ]
      }
    },
    {
      "type": "Feature",
      "properties": {
        "norad_id": 39020,
        "name": "EUTELSAT 70B",
        "group": "eutelsat",
        "lat": 0.07149633304048239,
        "lon": 126.84670044924437,
        "alt_km": 35794.525810944906,
        "timestamp": "2025-12-07T22:37:42.754254+00:00",
        "meta_object_name": "EUTELSAT 70B",
        "meta_object_id": "2012-069A",
        "meta_epoch": "2025-12-07T02:03:38.498400",
        "meta_mean_motion": 1.00271953,
        "meta_eccentricity": 0.00043004,
        "meta_inclination": 0.0644,
        "meta_ra_of_asc_node": 10.1559,
        "meta_arg_of_pericenter": 234.4627,
        "meta_mean_anomaly": 292.9149,
        "meta_ephemeris_type": 0,
        "meta_classification_type": "U",
        "meta_norad_cat_id": 39020,
        "meta_element_set_no": 999,
        "meta_rev_at_epoch": 4758,
        "meta_bstar": 0,
        "meta_mean_motion_dot": -3.9e-07,
        "meta_mean_motion_ddot": 0,
        "tle_line1": "1 39020U 12069A   25341.08586225 -.00000039  00000+0  00000+0 0  9994",
        "tle_line2": "2 39020   0.0644  10.1559 0004300 234.4627 292.9149  1.00271953 47584"
      },
      "geometry": {
        "type": "Point",
        "coordinates": [
          126.84670044924437,
          0.07149633304048239
        ]
      }
    },
    {
      "type": "Feature",
      "properties": {
        "norad_id": 39122,
        "name": "EUTELSAT 117 WEST A",
        "group": "eutelsat",
        "lat": -0.02151838544007786,
        "lon": -60.39522822616458,
        "alt_km": 35776.701021206434,
        "timestamp": "2025-12-07T22:37:42.754267+00:00",
        "meta_object_name": "EUTELSAT 117 WEST A",
        "meta_object_id": "2013-012A",
        "meta_epoch": "2025-12-07T07:10:41.282688",
        "meta_mean_motion": 1.00270117,
        "meta_eccentricity": 0.00031502,
        "meta_inclination": 0.0139,
        "meta_ra_of_asc_node": 332.4793,
        "meta_arg_of_pericenter": 284.5051,
        "meta_mean_anomaly": 170.2153,
        "meta_ephemeris_type": 0,
        "meta_classification_type": "U",
        "meta_norad_cat_id": 39122,
        "meta_element_set_no": 999,
        "meta_rev_at_epoch": 4650,
        "meta_bstar": 0,
        "meta_mean_motion_dot": -8e-08,
        "meta_mean_motion_ddot": 0,
        "tle_line1": "1 39122U 13012A   25341.29908892 -.00000008  00000+0  00000+0 0  9993",
        "tle_line2": "2 39122   0.0139 332.4793 0003150 284.5051 170.2153  1.00270117 46500"
      },
      "geometry": {
        "type": "Point",
        "coordinates": [
          -60.39522822616458,
          -0.02151838544007786
        ]
      }
    },
    {
      "type": "Feature",
      "properties": {
        "norad_id": 39163,
        "name": "EUTELSAT 7B",
        "group": "eutelsat",
        "lat": 0.07821452660912173,
        "lon": 63.41319739163257,
        "alt_km": 35793.053034339,
        "timestamp": "2025-12-07T22:37:42.754279+00:00",
        "meta_object_name": "EUTELSAT 7B",
        "meta_object_id": "2013-022A",
        "meta_epoch": "2025-12-07T06:49:09.134400",
        "meta_mean_motion": 1.00270747,
        "meta_eccentricity": 0.00044819,
        "meta_inclination": 0.0694,
        "meta_ra_of_asc_node": 9.5468,
        "meta_arg_of_pericenter": 303.1607,
        "meta_mean_anomaly": 232.877,
        "meta_ephemeris_type": 0,
        "meta_classification_type": "U",
        "meta_norad_cat_id": 39163,
        "meta_element_set_no": 999,
        "meta_rev_at_epoch": 4603,
        "meta_bstar": 0,
        "meta_mean_motion_dot": 5.2e-07,
        "meta_mean_motion_ddot": 0,
        "tle_line1": "1 39163U 13022A   25341.28413350  .00000052  00000+0  00000+0 0  9996",
        "tle_line2": "2 39163   0.0694   9.5468 0004481 303.1607 232.8770  1.00270747 46032"
      },
      "geometry": {
        "type": "Point",
        "coordinates": [
          63.41319739163257,
          0.07821452660912173
        ]
      }
    },
    {
      "type": "Feature",
      "properties": {
        "norad_id": 39612,
        "name": "EXPRESS-AT1",
        "group": "eutelsat",
        "lat": 0.01745283721359408,
        "lon": 112.3785155876791,
        "alt_km": 35785.15617071752,
        "timestamp": "2025-12-07T22:37:42.754292+00:00",
        "meta_object_name": "EXPRESS-AT1",
        "meta_object_id": "2014-010A",
        "meta_epoch": "2025-12-07T05:20:25.132704",
        "meta_mean_motion": 1.00272011,
        "meta_eccentricity": 5.174e-05,
        "meta_inclination": 0.0179,
        "meta_ra_of_asc_node": 308.4123,
        "meta_arg_of_pericenter": 232.3307,
        "meta_mean_anomaly": 31.613,
        "meta_ephemeris_type": 0,
        "meta_classification_type": "U",
        "meta_norad_cat_id": 39612,
        "meta_element_set_no": 999,
        "meta_rev_at_epoch": 4289,
        "meta_bstar": 0,
        "meta_mean_motion_dot": 8.3e-07,
        "meta_mean_motion_ddot": 0,
        "tle_line1": "1 39612U 14010A   25341.22251311  .00000083  00000+0  00000+0 0  9998",
        "tle_line2": "2 39612   0.0179 308.4123 0000517 232.3307  31.6130  1.00272011 42895"
      },
      "geometry": {
        "type": "Point",
        "coordinates": [
          112.3785155876791,
          0.01745283721359408
        ]
      }
    },
    {
      "type": "Feature",
      "properties": {
        "norad_id": 39613,
        "name": "EXPRESS-AT2",
        "group": "eutelsat",
        "lat": -0.01770620614837434,
        "lon": -163.78710313126976,
        "alt_km": 35787.178958827215,
        "timestamp": "2025-12-07T22:37:42.754303+00:00",
        "meta_object_name": "EXPRESS-AT2",
        "meta_object_id": "2014-010B",
        "meta_epoch": "2025-12-07T04:35:38.605920",
        "meta_mean_motion": 1.00268934,
        "meta_eccentricity": 0.00014037,
        "meta_inclination": 0.0173,
        "meta_ra_of_asc_node": 356.0304,
        "meta_arg_of_pericenter": 292.4604,
        "meta_mean_anomaly": 356.4947,
        "meta_ephemeris_type": 0,
        "meta_classification_type": "U",
        "meta_norad_cat_id": 39613,
        "meta_element_set_no": 999,
        "meta_rev_at_epoch": 4257,
        "meta_bstar": 0,
        "meta_mean_motion_dot": 0,
        "meta_mean_motion_ddot": 0,
        "tle_line1": "1 39613U 14010B   25341.19141905  .00000000  00000+0  00000+0 0  9991",
        "tle_line2": "2 39613   0.0173 356.0304 0001403 292.4604 356.4947  1.00268934 42570"
      },
      "geometry": {
        "type": "Point",
        "coordinates": [
          -163.78710313126976,
          -0.01770620614837434
        ]
      }
    }
  ]
}